{"type": "FeatureCollection", "features": [ {"type": "Feature", "properties": {"norad_id": 33867, "name": "IRIDIUM 33 DEB", "group": "iridium-33-debris", "lat": -21.045736111556973, "lon": 169.084172690884, "alt_km": 348.5892158942297, "timestamp": "2025-12-17T09:00:17.532911+00:00", "meta": {"OBJECT_NAME": "IRIDIUM 33 DEB", "OBJECT_ID": "1997-051AL", "EPOCH": "2025-12-16T23:00:50.413248", "MEAN_MOTION": 15.75812289, "ECCENTRICITY": 0.00135861, "INCLINATION": 86.3641, "RA_OF_ASC_NODE": 347.9009, "ARG_OF_PERICENTER": 91.0972, "MEAN_ANOMALY": 269.1858, "EPHEMERIS_TYPE": 0, "CLASSIFICATION_TYPE": "U", "NORAD_CAT_ID": 33867, "ELEMENT_SET_NO": 999, "REV_AT_EPOCH": 89577, "BSTAR": 0.0069135069, "MEAN_MOTION_DOT": 0.01194972, "MEAN_MOTION_DDOT": 0}, "tle": {"line1": "1 33867U 97051AL  25350.95891682  .01194972  00000+0  69135-2 0  9990", "line2": "2 33867  86.3641 347.9009 0013586  91.0972 269.1858 15.75812289895773"}}, "geometry": {"type": "Point", "coordinates": [169.084172690884, -21.045736111556973]}}, {"type": "Feature", "properties": {"norad_id": 33870, "name": "IRIDIUM 33 DEB", "group": "iridium-33-debris", "lat": -40.92564810399557, "lon": 53.122961851236596, "alt_km": 760.0377041843421, "timestamp": "2025-12-17T09:00:17.532922+00:00", "meta": {"OBJECT_NAME": "IRIDIUM 33 DEB", "OBJECT_ID": "1997-051AP", "EPOCH": "2025-12-16T05:12:29.078208", "MEAN_MOTION": 14.45870767, "ECCENTRICITY": 0.00218863, "INCLINATION": 86.3748, "RA_OF_ASC_NODE": 56.7702, "ARG_OF_PERICENTER": 166.7882, "MEAN_ANOMALY": 247.4368, "EPHEMERIS_TYPE": 0, "CLASSIFICATION_TYPE": "U", "NORAD_CAT_ID": 33870, "ELEMENT_SET_NO": 999, "REV_AT_EPOCH": 88187, "BSTAR": 0.00056447211, "MEAN_MOTION_DOT": 2.03e-05, "MEAN_MOTION_DDOT": 0}, "tle": {"line1": "1 33870U 97051AP  25350.21700322  .00002030  00000+0  56447-3 0  9998", "line2": "2 33870  86.3748  56.7702 0021886 166.7882 247.4368 14.45870767881874"}}, "geometry": {"type": "Point", "coordinates": [53.122961851236596, -40.92564810399557]}}, {"type": "Feature", "properties": {"norad_id": 33881, "name": "IRIDIUM 33 DEB", "group": "iridium-33-debris", "lat": 6.0166200430559025, "lon": 105.10929895768203, "alt_km": 745.1647185735619, "timestamp": "2025-12-17T09:00:17.532933+00:00", "meta": {"OBJECT_NAME": "IRIDIUM 33 DEB", "OBJECT_ID": "1997-051BA", "EPOCH": "2025-12-16T20:22:46.379424", "MEAN_MOTION": 14.56649424, "ECCENTRICITY": 0.00614749, "INCLINATION": 86.386, "RA_OF_ASC_NODE": 104.9563, "ARG_OF_PERICENTER": 161.413, "MEAN_ANOMALY": 328.223, "EPHEMERIS_TYPE": 0, "CLASSIFICATION_TYPE": "U", "NORAD_CAT_ID": 33881, "ELEMENT_SET_NO": 999, "REV_AT_EPOCH": 87560, "BSTAR": 0.0015152662, "MEAN_MOTION_DOT": 6.959e-05, "MEAN_MOTION_DDOT": 0}, "tle": {"line1": "1 33881U 97051BA  25350.84914791  .00006959  00000+0  15153-2 0  9998", "line2": "2 33881  86.3860 104.9563 0061474 161.4130 328.2230 14.56649424875603"}}, "geometry": {"type": "Point", "coordinates": [105.10929895768203, 6.0166200430559025]}}, {"type": "Feature", "properties": {"norad_id": 33884, "name": "IRIDIUM 33 DEB", "group": "iridium-33-debris", "lat": -59.20563269788081, "lon": 1.610812584861016, "alt_km": 637.9188903005906, "timestamp": "2025-12-17T09:00:17.532943+00:00", "meta": {"OBJECT_NAME": "IRIDIUM 33 DEB", "OBJECT_ID": "1997-051BD", "EPOCH": "2025-12-16T23:48:52.081344", "MEAN_MOTION": 14.77513919, "ECCENTRICITY": 0.0009261, "INCLINATION": 86.3695, "RA_OF_ASC_NODE": 7.8991, "ARG_OF_PERICENTER": 307.2606, "MEAN_ANOMALY": 117.9093, "EPHEMERIS_TYPE": 0, "CLASSIFICATION_TYPE": "U", "NORAD_CAT_ID": 33884, "ELEMENT_SET_NO": 999, "REV_AT_EPOCH": 88910, "BSTAR": 0.0011874534, "MEAN_MOTION_DOT": 8.5e-05, "MEAN_MOTION_DDOT": 0}, "tle": {"line1": "1 33884U 97051BD  25350.99226946  .00008500  00000+0  11875-2 0  9996", "line2": "2 33884  86.3695   7.8991 0009261 307.2606 117.9093 14.77513919889104"}}, "geometry": {"type": "Point", "coordinates": [1.610812584861016, -59.20563269788081]}}, {"type": "Feature", "properties": {"norad_id": 33886, "name": "IRIDIUM 33 DEB", "group": "iridium-33-debris", "lat": -75.79213532812288, "lon": -100.2538418277127, "alt_km": 771.2469547727005, "timestamp": "2025-12-17T09:00:17.532954+00:00", "meta": {"OBJECT_NAME": "IRIDIUM 33 DEB", "OBJECT_ID": "1997-051BF", "EPOCH": "2025-12-17T00:15:50.309280", "MEAN_MOTION": 14.36057137, "ECCENTRICITY": 0.00126285, "INCLINATION": 86.3828, "RA_OF_ASC_NODE": 65.4311, "ARG_OF_PERICENTER": 226.2038, "MEAN_ANOMALY": 308.2695, "EPHEMERIS_TYPE": 0, "CLASSIFICATION_TYPE": "U", "NORAD_CAT_ID": 33886, "ELEMENT_SET_NO": 999, "REV_AT_EPOCH": 88113, "BSTAR": 0.00017106964, "MEAN_MOTION_DOT": 5.17e-06, "MEAN_MOTION_DDOT": 0}, "tle": {"line1": "1 33886U 97051BF  25351.01099895  .00000517  00000+0  17107-3 0  9998", "line2": "2 33886  86.3828  65.4311 0012628 226.2038 308.2695 14.36057137881138"}}, "geometry": {"type": "Point", "coordinates": [-100.2538418277127, -75.79213532812288]}}, {"type": "Feature", "properties": {"norad_id": 33887, "name": "IRIDIUM 33 DEB", "group": "iridium-33-debris", "lat": -31.91329058350675, "lon": -176.29840627126802, "alt_km": 770.4077998015291, "timestamp": "2025-12-17T09:00:17.532964+00:00", "meta": {"OBJECT_NAME": "IRIDIUM 33 DEB", "OBJECT_ID": "1997-051BG", "EPOCH": "2025-12-16T12:33:11.793888", "MEAN_MOTION": 14.37224432, "ECCENTRICITY": 0.00048024, "INCLINATION": 86.3043, "RA_OF_ASC_NODE": 1.7618, "ARG_OF_PERICENTER": 210.6585, "MEAN_ANOMALY": 274.979, "EPHEMERIS_TYPE": 0, "CLASSIFICATION_TYPE": "U", "NORAD_CAT_ID": 33887, "ELEMENT_SET_NO": 999, "REV_AT_EPOCH": 88219, "BSTAR": 0.000138268, "MEAN_MOTION_DOT": 4.31e-06, "MEAN_MOTION_DDOT": 0}, "tle": {"line1": "1 33887U 97051BG  25350.52305317  .00000431  00000+0  13827-3 0  9993", "line2": "2 33887  86.3043   1.7618 0004802 210.6585 274.9790 14.37224432882197"}}, "geometry": {"type": "Point", "coordinates": [-176.29840627126802, -31.91329058350675]}}, {"type": "Feature", "properties": {"norad_id": 33953, "name": "IRIDIUM 33 DEB", "group": "iridium-33-debris", "lat": 9.100627676142933, "lon": 52.34810988120405, "alt_km": 707.5424474523925, "timestamp": "2025-12-17T09:00:17.532974+00:00", "meta": {"OBJECT_NAME": "IRIDIUM 33 DEB", "OBJECT_ID": "1997-051BN", "EPOCH": "2025-12-16T05:10:47.996256", "MEAN_MOTION": 14.55360619, "ECCENTRICITY": 0.00182387, "INCLINATION": 86.3848, "RA_OF_ASC_NODE": 52.2709, "ARG_OF_PERICENTER": 92.3445, "MEAN_ANOMALY": 326.7114, "EPHEMERIS_TYPE": 0, "CLASSIFICATION_TYPE": "U", "NORAD_CAT_ID": 33953, "ELEMENT_SET_NO": 999, "REV_AT_EPOCH": 88354, "BSTAR": 0.00077913405, "MEAN_MOTION_DOT": 3.408e-05, "MEAN_MOTION_DDOT": 0}, "tle": {"line1": "1 33953U 97051BN  25350.21583329  .00003408  00000+0  77913-3 0  9997", "line2": "2 33953  86.3848  52.2709 0018238  92.3445 326.7114 14.55360619883548"}}, "geometry": {"type": "Point", "coordinates": [52.34810988120405, 9.100627676142933]}}, {"type": "Feature", "properties": {"norad_id": 33960, "name": "IRIDIUM 33 DEB", "group": "iridium-33-debris", "lat": -46.903484715154185, "lon": -76.68744797328496, "alt_km": 620.113861845598, "timestamp": "2025-12-17T09:00:17.532985+00:00", "meta": {"OBJECT_NAME": "IRIDIUM 33 DEB", "OBJECT_ID": "1997-051BV", "EPOCH": "2025-12-16T20:31:22.067328", "MEAN_MOTION": 14.85403921, "ECCENTRICITY": 0.00074534, "INCLINATION": 86.2536, "RA_OF_ASC_NODE": 287.5735, "ARG_OF_PERICENTER": 55.4935, "MEAN_ANOMALY": 358.3261, "EPHEMERIS_TYPE": 0, "CLASSIFICATION_TYPE": "U", "NORAD_CAT_ID": 33960, "ELEMENT_SET_NO": 999, "REV_AT_EPOCH": 88928, "BSTAR": 0.0023777253, "MEAN_MOTION_DOT": 0.00020546, "MEAN_MOTION_DDOT": 0}, "tle": {"line1": "1 33960U 97051BV  25350.85511652  .00020546  00000+0  23777-2 0  9995", "line2": "2 33960  86.2536 287.5735 0007453  55.4935 358.3261 14.85403921889280"}}, "geometry": {"type": "Point", "coordinates": [-76.68744797328496, -46.903484715154185]}}, {"type": "Feature", "properties": {"norad_id": 33966, "name": "IRIDIUM 33 DEB", "group": "iridium-33-debris", "lat": 39.47667157329462, "lon": 47.01690192488608, "alt_km": 727.8274729894001, "timestamp": "2025-12-17T09:00:17.532995+00:00", "meta": {"OBJECT_NAME": "IRIDIUM 33 DEB", "OBJECT_ID": "1997-051CB", "EPOCH": "2025-12-16T16:50:38.690880", "MEAN_MOTION": 14.49610629, "ECCENTRICITY": 0.00079012, "INCLINATION": 86.3926, "RA_OF_ASC_NODE": 44.3273, "ARG_OF_PERICENTER": 175.1999, "MEAN_ANOMALY": 312.7455, "EPHEMERIS_TYPE": 0, "CLASSIFICATION_TYPE": "U", "NORAD_CAT_ID": 33966, "ELEMENT_SET_NO": 999, "REV_AT_EPOCH": 88499, "BSTAR": 0.00040274972, "MEAN_MOTION_DOT": 1.567e-05, "MEAN_MOTION_DDOT": 0}, "tle": {"line1": "1 33966U 97051CB  25350.70183670  .00001567  00000+0  40275-3 0  9995", "line2": "2 33966  86.3926  44.3273 0007901 175.1999 312.7455 14.49610629884991"}}, "geometry": {"type": "Point", "coordinates": [47.01690192488608, 39.47667157329462]}}, {"type": "Feature", "properties": {"norad_id": 34071, "name": "IRIDIUM 33 DEB", "group": "iridium-33-debris", "lat": 75.52163971417606, "lon": -178.51638487187108, "alt_km": 713.2401263886622, "timestamp": "2025-12-17T09:00:17.533005+00:00", "meta": {"OBJECT_NAME": "IRIDIUM 33 DEB", "OBJECT_ID": "1997-051CE", "EPOCH": "2025-12-16T14:18:08.558496", "MEAN_MOTION": 14.49482686, "ECCENTRICITY": 0.00100001, "INCLINATION": 86.3455, "RA_OF_ASC_NODE": 16.1526, "ARG_OF_PERICENTER": 97.4247, "MEAN_ANOMALY": 262.8094, "EPHEMERIS_TYPE": 0, "CLASSIFICATION_TYPE": "U", "NORAD_CAT_ID": 34071, "ELEMENT_SET_NO": 999, "REV_AT_EPOCH": 88390, "BSTAR": 0.00047158898, "MEAN_MOTION_DOT": 1.827e-05, "MEAN_MOTION_DDOT": 0}, "tle": {"line1": "1 34071U 97051CE  25350.59593239  .00001827  00000+0  47159-3 0  9993", "line2": "2 34071  86.3455  16.1526 0010000  97.4247 262.8094 14.49482686883904"}}, "geometry": {"type": "Point", "coordinates": [-178.51638487187108, 75.52163971417606]}}]}